start=new Date('2022-11-05T00:00:00.000Z').valueOf();
sats=[{"TLE_LINE1":"1 51796U 22017AE  22308.81169626  .00001461  00000-0  10986-3 0  9993","OBJECT_ID":"2022-017AE","RCS_SIZE":"LARGE","FILE":"3645105","INCLINATION":"53.2168","GP_ID":"216937144","RA_OF_ASC_NODE":"69.8523","CENTER_NAME":"EARTH","EPOCH":"2022-11-04T19:28:50.556864","COUNTRY_CODE":"US","MEAN_ELEMENT_THEORY":"SGP4","SEMIMAJOR_AXIS":"6917.837","REV_AT_EPOCH":"3960","MEAN_MOTION_DDOT":"0.0000000000000","NORAD_CAT_ID":"51796","MEAN_MOTION":"15.08854291","ARG_OF_PERICENTER":"42.9981","MEAN_ANOMALY":"317.1156","DECAY_DATE":null,"OBJECT_TYPE":"PAYLOAD","MEAN_MOTION_DOT":"0.00001461","TIME_SYSTEM":"UTC","CLASSIFICATION_TYPE":"U","ELEMENT_SET_NO":"999","TLE_LINE2":"2 51796  53.2168  69.8523 0001851  42.9981 317.1156 15.08854291 39601","PERIOD":"95.437","ECCENTRICITY":"0.00018510","REF_FRAME":"TEME","SITE":"AFWTR","BSTAR":"0.00010986000000","APOAPSIS":"540.982","OBJECT_NAME":"STARLINK-3630","LAUNCH_DATE":"2022-02-25","PERIAPSIS":"538.421","EPHEMERIS_TYPE":"0"},{"OBJECT_NAME":"STARLINK-3627","LAUNCH_DATE":"2022-02-25","ECCENTRICITY":"0.00021840","REF_FRAME":"TEME","PERIOD":"95.437","SITE":"AFWTR","BSTAR":"0.00009971900000","APOAPSIS":"541.243","EPHEMERIS_TYPE":"0","PERIAPSIS":"538.222","MEAN_ANOMALY":"328.5858","DECAY_DATE":null,"MEAN_MOTION":"15.08844227","NORAD_CAT_ID":"51797","ARG_OF_PERICENTER":"31.5265","MEAN_MOTION_DOT":"0.00001299","TLE_LINE2":"2 51797  53.2175  70.0641 0002184  31.5265 328.5858 15.08844227 39652","ELEMENT_SET_NO":"999","CLASSIFICATION_TYPE":"U","TIME_SYSTEM":"UTC","OBJECT_TYPE":"PAYLOAD","CENTER_NAME":"EARTH","RA_OF_ASC_NODE":"70.0641","MEAN_ELEMENT_THEORY":"SGP4","COUNTRY_CODE":"US","EPOCH":"2022-11-04T18:25:15.358368","MEAN_MOTION_DDOT":"0.0000000000000","REV_AT_EPOCH":"3965","SEMIMAJOR_AXIS":"6917.867","OBJECT_ID":"2022-017AF","TLE_LINE1":"1 51797U 22017AF  22308.76753887  .00001299  00000-0  99719-4 0  9997","GP_ID":"216936894","FILE":"3645105","RCS_SIZE":"LARGE","INCLINATION":"53.2175"},{"LAUNCH_DATE":"2022-02-25","OBJECT_NAME":"STARLINK-3634","BSTAR":"0.00013629000000","SITE":"AFWTR","APOAPSIS":"540.855","ECCENTRICITY":"0.00016300","REF_FRAME":"TEME","PERIOD":"95.437","EPHEMERIS_TYPE":"0","PERIAPSIS":"538.600","DECAY_DATE":null,"MEAN_ANOMALY":"318.2047","ARG_OF_PERICENTER":"41.9070","MEAN_MOTION":"15.08845959","NORAD_CAT_ID":"51798","ELEMENT_SET_NO":"999","TLE_LINE2":"2 51798  53.2179  70.1541 0001630  41.9070 318.2047 15.08845959 39649","CLASSIFICATION_TYPE":"U","TIME_SYSTEM":"UTC","MEAN_MOTION_DOT":"0.00001882","OBJECT_TYPE":"PAYLOAD","MEAN_ELEMENT_THEORY":"SGP4","COUNTRY_CODE":"US","EPOCH":"2022-11-04T17:48:09.863712","CENTER_NAME":"EARTH","RA_OF_ASC_NODE":"70.1541","MEAN_MOTION_DDOT":"0.0000000000000","REV_AT_EPOCH":"3964","SEMIMAJOR_AXIS":"6917.862","OBJECT_ID":"2022-017AG","TLE_LINE1":"1 51798U 22017AG  22308.74178083  .00001882  00000-0  13629-3 0  9998","GP_ID":"216907976","INCLINATION":"53.2179","RCS_SIZE":"LARGE","FILE":"3644829"},{"MEAN_MOTION_DDOT":"0.0000000000000","REV_AT_EPOCH":"3960","SEMIMAJOR_AXIS":"6917.868","MEAN_ELEMENT_THEORY":"SGP4","COUNTRY_CODE":"US","EPOCH":"2022-11-04T18:04:04.181952","RA_OF_ASC_NODE":"70.1313","CENTER_NAME":"EARTH","GP_ID":"216937885","INCLINATION":"53.2182","RCS_SIZE":"LARGE","FILE":"3645105","OBJECT_ID":"2022-017AH","TLE_LINE1":"1 51799U 22017AH  22308.75282618  .00001507  00000-0  11274-3 0  9998","EPHEMERIS_TYPE":"0","PERIAPSIS":"538.453","LAUNCH_DATE":"2022-02-25","OBJECT_NAME":"STARLINK-3637","SITE":"AFWTR","APOAPSIS":"541.012","BSTAR":"0.00011274000000","ECCENTRICITY":"0.00018490","REF_FRAME":"TEME","PERIOD":"95.437","TLE_LINE2":"2 51799  53.2182  70.1313 0001849  47.6282 312.4866 15.08844182 39609","ELEMENT_SET_NO":"999","TIME_SYSTEM":"UTC","CLASSIFICATION_TYPE":"U","MEAN_MOTION_DOT":"0.00001507","OBJECT_TYPE":"PAYLOAD","DECAY_DATE":null,"MEAN_ANOMALY":"312.4866","ARG_OF_PERICENTER":"47.6282","NORAD_CAT_ID":"51799","MEAN_MOTION":"15.08844182"},{"TLE_LINE1":"1 51800U 22017AJ  22308.73538598  .00000378  00000-0  41936-4 0  9994","OBJECT_ID":"2022-017AJ","INCLINATION":"53.2152","FILE":"3645105","RCS_SIZE":"LARGE","GP_ID":"216936644","COUNTRY_CODE":"US","MEAN_ELEMENT_THEORY":"SGP4","EPOCH":"2022-11-04T17:38:57.348672","RA_OF_ASC_NODE":"70.2013","CENTER_NAME":"EARTH","SEMIMAJOR_AXIS":"6917.882","MEAN_MOTION_DDOT":"0.0000000000000","REV_AT_EPOCH":"3964","ARG_OF_PERICENTER":"36.9422","NORAD_CAT_ID":"51800","MEAN_MOTION":"15.08839560","DECAY_DATE":null,"MEAN_ANOMALY":"323.1837","OBJECT_TYPE":"PAYLOAD","TLE_LINE2":"2 51800  53.2152  70.2013 0003886  36.9422 323.1837 15.08839560 39642","ELEMENT_SET_NO":"999","CLASSIFICATION_TYPE":"U","TIME_SYSTEM":"UTC","MEAN_MOTION_DOT":"0.00000378","BSTAR":"0.00004193600000","SITE":"AFWTR","APOAPSIS":"542.435","ECCENTRICITY":"0.00038860","REF_FRAME":"TEME","PERIOD":"95.438","LAUNCH_DATE":"2022-02-25","OBJECT_NAME":"STARLINK-3600","PERIAPSIS":"537.058","EPHEMERIS_TYPE":"0"},{"MEAN_MOTION":"15.08849549","NORAD_CAT_ID":"51801","ARG_OF_PERICENTER":"48.1125","MEAN_ANOMALY":"312.0022","DECAY_DATE":null,"OBJECT_TYPE":"PAYLOAD","MEAN_MOTION_DOT":"0.00002320","ELEMENT_SET_NO":"999","TLE_LINE2":"2 51801  53.2189  70.1287 0001820  48.1125 312.0022 15.08849549 39603","CLASSIFICATION_TYPE":"U","TIME_SYSTEM":"UTC","REF_FRAME":"TEME","ECCENTRICITY":"0.00018200","PERIOD":"95.437","SITE":"AFWTR","APOAPSIS":"540.975","BSTAR":"0.00016376000000","OBJECT_NAME":"STARLINK-3592","LAUNCH_DATE":"2022-02-25","PERIAPSIS":"538.457","EPHEMERIS_TYPE":"0","TLE_LINE1":"1 51801U 22017AK  22308.74914014  .00002320  00000-0  16376-3 0  9995","OBJECT_ID":"2022-017AK","FILE":"3645105","RCS_SIZE":"LARGE","INCLINATION":"53.2189","GP_ID":"216937395","CENTER_NAME":"EARTH","RA_OF_ASC_NODE":"70.1287","COUNTRY_CODE":"US","MEAN_ELEMENT_THEORY":"SGP4","EPOCH":"2022-11-04T17:58:45.708096","SEMIMAJOR_AXIS":"6917.851","MEAN_MOTION_DDOT":"0.0000000000000","REV_AT_EPOCH":"3960"},{"SITE":"AFWTR","APOAPSIS":"541.067","BSTAR":"0.00009493100000","ECCENTRICITY":"0.00019160","REF_FRAME":"TEME","PERIOD":"95.437","LAUNCH_DATE":"2022-02-25","OBJECT_NAME":"STARLINK-3557","PERIAPSIS":"538.416","EPHEMERIS_TYPE":"0","ARG_OF_PERICENTER":"53.7741","NORAD_CAT_ID":"51802","MEAN_MOTION":"15.08841328","DECAY_DATE":null,"MEAN_ANOMALY":"306.3428","OBJECT_TYPE":"PAYLOAD","ELEMENT_SET_NO":"999","TLE_LINE2":"2 51802  53.2167  70.9508 0001916  53.7741 306.3428 15.08841328 39575","CLASSIFICATION_TYPE":"U","TIME_SYSTEM":"UTC","MEAN_MOTION_DOT":"0.00001223","COUNTRY_CODE":"US","MEAN_ELEMENT_THEORY":"SGP4","EPOCH":"2022-11-04T13:40:28.941888","RA_OF_ASC_NODE":"70.9508","CENTER_NAME":"EARTH","SEMIMAJOR_AXIS":"6917.876","MEAN_MOTION_DDOT":"0.0000000000000","REV_AT_EPOCH":"3957","TLE_LINE1":"1 51802U 22017AL  22308.56977942  .00001223  00000-0  94931-4 0  9990","OBJECT_ID":"2022-017AL","INCLINATION":"53.2167","FILE":"3645105","RCS_SIZE":"LARGE","GP_ID":"216937646"},{"OBJECT_TYPE":"PAYLOAD","MEAN_MOTION_DOT":"0.00000642","TLE_LINE2":"2 51803  53.2182  70.1799 0002030  44.8028 315.3128 15.08843071 39590","ELEMENT_SET_NO":"999","CLASSIFICATION_TYPE":"U","TIME_SYSTEM":"UTC","MEAN_MOTION":"15.08843071","NORAD_CAT_ID":"51803","ARG_OF_PERICENTER":"44.8028","MEAN_ANOMALY":"315.3128","DECAY_DATE":null,"PERIAPSIS":"538.332","EPHEMERIS_TYPE":"0","ECCENTRICITY":"0.00020300","REF_FRAME":"TEME","PERIOD":"95.437","APOAPSIS":"541.140","SITE":"AFWTR","BSTAR":"0.00005845700000","OBJECT_NAME":"STARLINK-3544","LAUNCH_DATE":"2022-02-25","FILE":"3645105","RCS_SIZE":"LARGE","INCLINATION":"53.2182","GP_ID":"216938386","TLE_LINE1":"1 51803U 22017AM  22308.73810501  .00000642  00000-0  58457-4 0  9994","OBJECT_ID":"2022-017AM","SEMIMAJOR_AXIS":"6917.871","MEAN_MOTION_DDOT":"0.0000000000000","REV_AT_EPOCH":"3959","CENTER_NAME":"EARTH","RA_OF_ASC_NODE":"70.1799","MEAN_ELEMENT_THEORY":"SGP4","COUNTRY_CODE":"US","EPOCH":"2022-11-04T17:42:52.272864"},{"NORAD_CAT_ID":"51804","MEAN_MOTION":"15.08851402","ARG_OF_PERICENTER":"62.9262","MEAN_ANOMALY":"297.1924","DECAY_DATE":null,"OBJECT_TYPE":"PAYLOAD","MEAN_MOTION_DOT":"0.00002339","TLE_LINE2":"2 51804  53.2189  51.0224 0001905  62.9262 297.1924 15.08851402 39903","ELEMENT_SET_NO":"999","CLASSIFICATION_TYPE":"U","TIME_SYSTEM":"UTC","ECCENTRICITY":"0.00019050","REF_FRAME":"TEME","PERIOD":"95.437","SITE":"AFWTR","APOAPSIS":"541.028","BSTAR":"0.00016494000000","OBJECT_NAME":"STARLINK-3601","LAUNCH_DATE":"2022-02-25","PERIAPSIS":"538.393","EPHEMERIS_TYPE":"0","TLE_LINE1":"1 51804U 22017AN  22308.55225799  .00002339  00000-0  16494-3 0  9993","OBJECT_ID":"2022-017AN","RCS_SIZE":"LARGE","FILE":"3644831","INCLINATION":"53.2189","GP_ID":"216907761","CENTER_NAME":"EARTH","RA_OF_ASC_NODE":"51.0224","COUNTRY_CODE":"US","MEAN_ELEMENT_THEORY":"SGP4","EPOCH":"2022-11-04T13:15:15.090336","SEMIMAJOR_AXIS":"6917.846","MEAN_MOTION_DDOT":"0.0000000000000","REV_AT_EPOCH":"3990"},{"REV_AT_EPOCH":"3992","MEAN_MOTION_DDOT":"0.0000000000000","SEMIMAJOR_AXIS":"6917.863","EPOCH":"2022-11-04T17:56:07.774944","COUNTRY_CODE":"US","MEAN_ELEMENT_THEORY":"SGP4","RA_OF_ASC_NODE":"50.1362","CENTER_NAME":"EARTH","GP_ID":"216907775","INCLINATION":"53.2164","FILE":"3644843","RCS_SIZE":"LARGE","OBJECT_ID":"2022-017AP","TLE_LINE1":"1 51805U 22017AP  22308.74731221  .00004073  00000-0  27382-3 0  9992","EPHEMERIS_TYPE":"0","PERIAPSIS":"538.319","LAUNCH_DATE":"2022-02-25","OBJECT_NAME":"STARLINK-3605","SITE":"AFWTR","BSTAR":"0.00027382000000","APOAPSIS":"541.137","PERIOD":"95.437","REF_FRAME":"TEME","ECCENTRICITY":"0.00020370","TIME_SYSTEM":"UTC","CLASSIFICATION_TYPE":"U","ELEMENT_SET_NO":"999","TLE_LINE2":"2 51805  53.2164  50.1362 0002037  33.8920 326.2202 15.08845649 39926","MEAN_MOTION_DOT":"0.00004073","OBJECT_TYPE":"PAYLOAD","DECAY_DATE":null,"MEAN_ANOMALY":"326.2202","ARG_OF_PERICENTER":"33.8920","MEAN_MOTION":"15.08845649","NORAD_CAT_ID":"51805"}];
